{"type":"FeatureCollection","crs":{"type":"name","properties":{"name":"EPSG:4326"}},"features":[{"type":"Feature","id":1,"geometry":{"type":"Polygon","coordinates":[[[172.604278083534,-43.6176365966559],[172.604308041646,-43.617593810205],[172.604952565854,-43.6174191743536],[172.605286546889,-43.6172071197972],[172.605191889601,-43.6167235210113],[172.605050954454,-43.6165327432345],[172.60564277461,-43.6156874422806],[172.606103638093,-43.6155820137304],[172.608071912696,-43.6176919116676],[172.609139978175,-43.6170564345412],[172.61033511865,-43.616291673719],[172.611966281213,-43.6156773963782],[172.610703535081,-43.6155173214268],[172.609868640913,-43.6151050125893],[172.609405718289,-43.6145664817632],[172.608668671321,-43.6148884088864],[172.606683058143,-43.6138048553609],[172.607182238894,-43.6134455834076],[172.608710948267,-43.6133005320956],[172.606924701683,-43.6130409286458],[172.605652323727,-43.6120015221908],[172.605179287115,-43.6109859884733],[172.605536032063,-43.610334389237],[172.606494412884,-43.6096445948838],[172.606385055653,-43.6090006284376],[172.606932363745,-43.6086559628595],[172.606928784211,-43.6079503121793],[172.607125636097,-43.6067364185735],[172.606879037112,-43.6066616407135],[172.606415872996,-43.6063643256171],[172.606649656092,-43.6061750235168],[172.606566582693,-43.6055410482217],[172.607080836228,-43.6046873368576],[172.606649357096,-43.6026398950518],[172.608199996222,-43.6042696677926],[172.608552312765,-43.6046576477773],[172.608442686427,-43.605147184946],[172.609433371651,-43.6055889161341],[172.609821019587,-43.6060027979307],[172.610617652782,-43.6061569228792],[172.611213412304,-43.60618007327],[172.610644455117,-43.6048710713949],[172.610474695448,-43.603684388697],[172.611085830739,-43.6034230923638],[172.612175427602,-43.6034901622304],[172.611414219309,-43.6031635512776],[172.611466825406,-43.6029385593656],[172.610445389048,-43.6027271537537],[172.610013934092,-43.6027256827503],[172.610321492793,-43.6025016400187],[172.610535608458,-43.6023832360337],[172.610787263018,-43.6023029802855],[172.611352199031,-43.6026834258651],[172.611908622906,-43.6029421714645],[172.612236685731,-43.6025512422532],[172.613310786083,-43.6018586676594],[172.614271350017,-43.6014631107789],[172.614195952212,-43.601162909878],[172.614414147001,-43.6011319613773],[172.614514055862,-43.601417458206],[172.614935173668,-43.6014716848258],[172.615314979918,-43.6011666807825],[172.615869715227,-43.6007777704012],[172.61659708996,-43.600664036305],[172.617298848318,-43.599862393391],[172.617982566099,-43.599468624338],[172.619207075898,-43.5997367467573],[172.620776348745,-43.599345907207],[172.621709606037,-43.598985947953],[172.62243519133,-43.5991533698507],[172.623926441962,-43.6003464534386],[172.623582540217,-43.6008733959433],[172.625454465154,-43.6029423352866],[172.626999237712,-43.6028483719756],[172.628157561831,-43.6028191407522],[172.629852817052,-43.6029494411545],[172.630500324185,-43.6015075813623],[172.632409853137,-43.6025709183525],[172.633475079712,-43.6024454137758],[172.635216285962,-43.6033387476978],[172.635224473503,-43.6033654332446],[172.635271842035,-43.6033522213503],[172.636521792239,-43.6038670145577],[172.637738136006,-43.6048925006471],[172.637763766826,-43.6057143235212],[172.637454938087,-43.6062463661857],[172.636779744245,-43.6067106176388],[172.636410711293,-43.6070870009193],[172.636357095265,-43.6070565333158],[172.636364668882,-43.607081213394],[172.634762152238,-43.6067040383194],[172.635039943765,-43.6077105355199],[172.634852226238,-43.6094117363326],[172.635631351608,-43.6096720713762],[172.636699645852,-43.6090566344317],[172.638826757825,-43.6093985779041],[172.639568874636,-43.6099166165176],[172.637359614104,-43.6114309365393],[172.636681331351,-43.6120991887943],[172.635225270524,-43.6122750458348],[172.634661845718,-43.6115512715627],[172.635307462259,-43.6104187990411],[172.634133937719,-43.6096538809241],[172.633494628655,-43.610212911208],[172.633854901343,-43.6107256372389],[172.633173665853,-43.6107069506161],[172.631829375941,-43.610318641483],[172.628753049844,-43.6105982696743],[172.628180278428,-43.6106416394928],[172.627739261319,-43.6105652864211],[172.627319731161,-43.6107126252225],[172.627680735825,-43.6110044534645],[172.627780396683,-43.611437376207],[172.627594511195,-43.611409733271],[172.626907455427,-43.6111911944376],[172.62888669412,-43.6130699745942],[172.629060997416,-43.6134693414189],[172.628614978693,-43.6138266378453],[172.628264545575,-43.6131035239948],[172.626815452048,-43.612144763011],[172.62479574509,-43.6116466283284],[172.624016329511,-43.6114363066671],[172.620803228149,-43.6095279289971],[172.620746908652,-43.609504219818],[172.62063427789,-43.6094982959789],[172.620631419106,-43.6099531312709],[172.620492075435,-43.6103364440344],[172.619689241981,-43.61046170115],[172.618809862708,-43.6103166333653],[172.619184763486,-43.6098061824732],[172.619518831684,-43.6095656585125],[172.62008790141,-43.6092832730627],[172.62012554941,-43.6092426428298],[172.619489464934,-43.6089748618295],[172.619455843289,-43.6089367876539],[172.619404869084,-43.609025150956],[172.619305807931,-43.6092238157312],[172.618931541227,-43.6096347718924],[172.618247879405,-43.6094761380899],[172.61805532385,-43.6089922223155],[172.618272474686,-43.6086802417763],[172.618254891238,-43.6083674772157],[172.617921814384,-43.608451647924],[172.617782907088,-43.6087638894326],[172.617294059111,-43.6087338261885],[172.616847311271,-43.6082348431916],[172.616166745109,-43.6075929345626],[172.615775515428,-43.6071553436867],[172.615136626509,-43.6071037809357],[172.614101655171,-43.6080285474794],[172.614252064217,-43.6083026632675],[172.62064448101,-43.6133935619689],[172.621721954591,-43.6154249334993],[172.622041290627,-43.6154999206486],[172.622573518625,-43.6163994029532],[172.622279747402,-43.6168842600543],[172.621944610687,-43.6170098904408],[172.621783250632,-43.6172417085535],[172.62185408103,-43.6175376637928],[172.622214526405,-43.6180141209558],[172.621922397495,-43.6182349460908],[172.622775918921,-43.6189031373938],[172.62328366422,-43.6190737952899],[172.623935005889,-43.6195300824051],[172.624633386405,-43.6194373249629],[172.624559057261,-43.6197011171624],[172.624572215061,-43.6199229512021],[172.624803827037,-43.6200821333461],[172.625339482208,-43.620442979957],[172.627189595049,-43.6198259022841],[172.628103299933,-43.6201774064004],[172.628232120234,-43.6205052307122],[172.630102150769,-43.6213773354354],[172.63040145915,-43.6224500802535],[172.631113303896,-43.6232026647634],[172.631762015694,-43.6236305941269],[172.631982808741,-43.6240436242657],[172.631451497826,-43.6241973773264],[172.630371793338,-43.6242547248618],[172.629322285094,-43.6239403981418],[172.628448365968,-43.623822652657],[172.628658750571,-43.6244113972833],[172.62815609208,-43.6244435602583],[172.627840152307,-43.6243749384269],[172.627837150014,-43.6248616008382],[172.627613503522,-43.6249149466238],[172.627439719928,-43.6244277091209],[172.627297436626,-43.6248666019032],[172.62716575107,-43.6250959893841],[172.62696913976,-43.6252913689011],[172.626856312578,-43.6254802613087],[172.626724664578,-43.6257028890063],[172.626574741753,-43.6258713827748],[172.626423939047,-43.6261818193694],[172.626394768322,-43.6263845033809],[172.626476880857,-43.6266483853781],[172.626661766889,-43.6268450101803],[172.627061796862,-43.6268598346345],[172.627379169583,-43.626698645555],[172.62740862817,-43.6264486466421],[172.627317625701,-43.6261171426064],[172.627162534387,-43.625616446976],[172.627109003189,-43.6252445095941],[172.627416393294,-43.6251914368646],[172.627673672406,-43.6257195025409],[172.628483233685,-43.6257153769858],[172.629412843574,-43.6258603402098],[172.629513577279,-43.6261242804172],[172.629504048224,-43.6264448951388],[172.628692857281,-43.6259564366861],[172.628691752147,-43.6261359782902],[172.62938559514,-43.6267930388337],[172.629544031918,-43.6270364656246],[172.630459995951,-43.6270394302044],[172.631243235216,-43.6273482416219],[172.631648332802,-43.6276769525413],[172.631502229406,-43.6277926569409],[172.631037425161,-43.6277172278475],[172.631064500934,-43.6280447201188],[172.63194850087,-43.6285228342195],[172.632180359721,-43.6286503184067],[172.632396585342,-43.6289572951595],[172.63258450614,-43.629137444392],[172.632847119185,-43.6289904275053],[172.633064891395,-43.6290439338864],[172.633310844039,-43.629245390866],[172.633482560953,-43.6297000833649],[172.63371359256,-43.6299648596723],[172.633683230354,-43.6301759910335],[172.633507661438,-43.6303549733748],[172.633579205992,-43.63054530867],[172.634059793195,-43.6304201101816],[172.634233247108,-43.6305896485585],[172.633763800472,-43.6312746385733],[172.633487794258,-43.6312315086431],[172.633095789927,-43.6311351986543],[172.632471917743,-43.6309114042152],[172.632095165042,-43.6306989637213],[172.632278840528,-43.631576153596],[172.631493153569,-43.6316581152135],[172.630437089802,-43.630778106281],[172.629829520557,-43.630269191641],[172.629308875972,-43.6298133627924],[172.629107073358,-43.6295275497309],[172.628929222881,-43.6288463932593],[172.628535005664,-43.6278852888676],[172.627931130618,-43.6277278604362],[172.627299258483,-43.6275838562781],[172.627012010239,-43.6273873217891],[172.626444327954,-43.6274910825569],[172.62592379839,-43.6270246766645],[172.625272492284,-43.6265472788657],[172.62454909262,-43.6259745870734],[172.624084771953,-43.6258252013849],[172.623707948869,-43.6256338555492],[172.622922790248,-43.6256418293088],[172.622574455696,-43.6255456272002],[172.622299409615,-43.6253546126893],[172.62206937086,-43.6249419556897],[172.621450773102,-43.6238943256472],[172.621118866693,-43.6234065547565],[172.620233156869,-43.6236875068787],[172.618657534875,-43.6241824527596],[172.61753734524,-43.6247532527716],[172.617009411661,-43.6250096074388],[172.61592931431,-43.6258430113924],[172.615693581206,-43.6254528660267],[172.615177104395,-43.6249403183342],[172.614382929636,-43.6248265965133],[172.613404043958,-43.6249121265377],[172.612303865405,-43.6248417740266],[172.611386836543,-43.6248164508632],[172.611171828378,-43.6249711835282],[172.610525504296,-43.6256352582747],[172.609729319107,-43.6258324256742],[172.608693587129,-43.625251446395],[172.608116891776,-43.6246054054931],[172.608149915613,-43.6242279635532],[172.608731361174,-43.6241411180113],[172.609008524977,-43.6238311378261],[172.6086126758,-43.6235854823654],[172.607942117842,-43.6232722570323],[172.606874428047,-43.6229132437549],[172.606105212743,-43.6236657072642],[172.605461898558,-43.6238633716431],[172.605416515073,-43.6238749176266],[172.605357352166,-43.6237659718588],[172.604980325134,-43.623616808953],[172.604853562965,-43.6229932451754],[172.606560711831,-43.6225082263463],[172.607439653654,-43.6210271637745],[172.607252040819,-43.6208152895202],[172.604278083534,-43.6176365966559]]]},"properties":{"OBJECTID":1,"Location":"Port Hills Fire 2024","Hectares":470,"Shape__Area":4695344.5,"Shape__Length":22180.611407234017,"Perimeter":"24km"}}]}