{"type": "FeatureCollection", "columns": {"count": "Long<0, 4294967295>", "label": "Byte<0, 1>", "system:index": "String"}, "features": [{"type": "Feature", "geometry": {"geodesic": false, "type": "Polygon", "coordinates": [[[172.58569474494624, -43.643846211625714], [172.58650322870193, -43.643846211625714], [172.58650322870193, -43.643576717040474], [172.58623373411666, -43.643576717040474], [172.58623373411666, -43.643307222455235], [172.58650322870193, -43.643307222455235], [172.58650322870193, -43.64276823328477], [172.5870422178724, -43.64276823328477], [172.5870422178724, -43.642229244114304], [172.58623373411666, -43.642229244114304], [172.58623373411666, -43.641690254943825], [172.58569474494624, -43.641690254943825], [172.58569474494624, -43.641959749529065], [172.58515575577576, -43.641959749529065], [172.58515575577576, -43.642229244114304], [172.58542525036097, -43.642229244114304], [172.58542525036097, -43.64249873869953], [172.58569474494624, -43.64249873869953], [172.58569474494624, -43.64276823328477], [172.58596423953145, -43.64276823328477], [172.58596423953145, -43.64303772787001], [172.58569474494624, -43.64303772787001], [172.58569474494624, -43.643846211625714]]]}, "id": "+1308324+458798", "properties": {"count": 27, "label": 1}}, {"type": "Feature", "geometry": {"geodesic": false, "type": "Polygon", "coordinates": [[[172.58973716372475, -43.61015938847123], [172.5908151420657, -43.61015938847123], [172.5908151420657, -43.60988989388599], [172.59108463665092, -43.60988989388599], [172.59108463665092, -43.609620399300766], [172.5916236258214, -43.609620399300766], [172.5916236258214, -43.60935090471553], [172.5918931204066, -43.60935090471553], [172.5918931204066, -43.609620399300766], [172.5924321095771, -43.609620399300766], [172.5924321095771, -43.60908141013029], [172.59297109874757, -43.60908141013029], [172.59297109874757, -43.60935090471553], [172.59377958250326, -43.60935090471553], [172.59377958250326, -43.60908141013029], [172.59404907708853, -43.60908141013029], [172.59404907708853, -43.60935090471553], [172.594588066259, -43.60935090471553], [172.594588066259, -43.609620399300766], [172.5953965500147, -43.609620399300766], [172.5953965500147, -43.60854242095982], [172.5951270554295, -43.60854242095982], [172.5951270554295, -43.60827292637458], [172.594588066259, -43.60827292637458], [172.594588066259, -43.60854242095982], [172.59377958250326, -43.60854242095982], [172.59377958250326, -43.60908141013029], [172.59324059333284, -43.60908141013029], [172.59324059333284, -43.60881191554505], [172.59270160416236, -43.60881191554505], [172.59270160416236, -43.60827292637458], [172.59324059333284, -43.60827292637458], [172.59324059333284, -43.60800343178934], [172.59351008791805, -43.60800343178934], [172.59351008791805, -43.60827292637458], [172.59404907708853, -43.60827292637458], [172.59404907708853, -43.60800343178934], [172.59431857167374, -43.60800343178934], [172.59431857167374, -43.6077339372041], [172.594588066259, -43.6077339372041], [172.594588066259, -43.60800343178934], [172.59485756084422, -43.60800343178934], [172.59485756084422, -43.6077339372041], [172.5951270554295, -43.6077339372041], [172.5951270554295, -43.60800343178934], [172.59566604459997, -43.60800343178934], [172.59566604459997, -43.60827292637458], [172.59647452835566, -43.60827292637458], [172.59647452835566, -43.60800343178934], [172.59701351752614, -43.60800343178934], [172.59701351752614, -43.60827292637458], [172.59728301211135, -43.60827292637458], [172.59728301211135, -43.60854242095982], [172.59782200128183, -43.60854242095982], [172.59782200128183, -43.60827292637458], [172.59809149586704, -43.60827292637458], [172.59809149586704, -43.60719494803364], [172.59863048503752, -43.60719494803364], [172.59863048503752, -43.6069254534484], [172.5983609904523, -43.6069254534484], [172.5983609904523, -43.60665595886317], [172.59809149586704, -43.60665595886317], [172.59809149586704, -43.60638646427793], [172.59728301211135, -43.60638646427793], [172.59728301211135, -43.60611696969269], [172.5962050337704, -43.60611696969269], [172.5962050337704, -43.60557798052223], [172.5953965500147, -43.60557798052223], [172.5953965500147, -43.60584747510745], [172.5951270554295, -43.60584747510745], [172.5951270554295, -43.60611696969269], [172.59485756084422, -43.60611696969269], [172.59485756084422, -43.60638646427793], [172.59431857167374, -43.60638646427793], [172.59431857167374, -43.60665595886317], [172.59404907708853, -43.60665595886317], [172.59404907708853, -43.60719494803364], [172.59324059333284, -43.60719494803364], [172.59324059333284, -43.6069254534484], [172.5918931204066, -43.6069254534484], [172.5918931204066, -43.60719494803364], [172.5916236258214, -43.60719494803364], [172.5916236258214, -43.60746444261888], [172.5918931204066, -43.60746444261888], [172.5918931204066, -43.60827292637458], [172.59216261499188, -43.60827292637458], [172.59216261499188, -43.60854242095982], [172.5916236258214, -43.60854242095982], [172.5916236258214, -43.60800343178934], [172.5913541312362, -43.60800343178934], [172.5913541312362, -43.60827292637458], [172.58973716372475, -43.60827292637458], [172.58973716372475, -43.60854242095982], [172.58946766913954, -43.60854242095982], [172.58946766913954, -43.60881191554505], [172.58973716372475, -43.60881191554505], [172.58973716372475, -43.60908141013029], [172.58919817455427, -43.60908141013029], [172.58919817455427, -43.60935090471553], [172.5886591853838, -43.60935090471553], [172.5886591853838, -43.609620399300766], [172.58838969079858, -43.609620399300766], [172.58838969079858, -43.61015938847123], [172.5886591853838, -43.61015938847123], [172.5886591853838, -43.60988989388599], [172.58973716372475, -43.60988989388599], [172.58973716372475, -43.61015938847123]], [[172.59674402294087, -43.6077339372041], [172.59674402294087, -43.60746444261888], [172.59701351752614, -43.60746444261888], [172.59701351752614, -43.6069254534484], [172.5962050337704, -43.6069254534484], [172.5962050337704, -43.60746444261888], [172.59647452835566, -43.60746444261888], [172.59647452835566, -43.6077339372041], [172.59674402294087, -43.6077339372041]]]}, "id": "+1308340+458673", "properties": {"count": 245, "label": 1}}, {"type": "Feature", "geometry": {"geodesic": false, "type": "Polygon", "coordinates": [[[172.59431857167374, -43.6451936845519], [172.594588066259, -43.6451936845519], [172.594588066259, -43.64492418996666], [172.5951270554295, -43.64492418996666], [172.5951270554295, -43.64438520079618], [172.59377958250326, -43.64438520079618], [172.59377958250326, -43.643846211625714], [172.59431857167374, -43.643846211625714], [172.59431857167374, -43.643307222455235], [172.59404907708853, -43.643307222455235], [172.59404907708853, -43.64249873869953], [172.59431857167374, -43.64249873869953], [172.59431857167374, -43.642229244114304], [172.59377958250326, -43.642229244114304], [172.59377958250326, -43.64303772787001], [172.59351008791805, -43.64303772787001], [172.59351008791805, -43.64249873869953], [172.59297109874757, -43.64249873869953], [172.59297109874757, -43.64276823328477], [172.59270160416236, -43.64276823328477], [172.59270160416236, -43.64303772787001], [172.59027615289523, -43.64303772787001], [172.59027615289523, -43.642229244114304], [172.59000665830996, -43.642229244114304], [172.59000665830996, -43.641959749529065], [172.58973716372475, -43.641959749529065], [172.58973716372475, -43.642229244114304], [172.5881201962133, -43.642229244114304], [172.5881201962133, -43.643307222455235], [172.5878507016281, -43.643307222455235], [172.5878507016281, -43.644115706210954], [172.58838969079858, -43.644115706210954], [172.58838969079858, -43.64438520079618], [172.58892867996906, -43.64438520079618], [172.58892867996906, -43.644115706210954], [172.59054564748044, -43.644115706210954], [172.59054564748044, -43.64465469538142], [172.5913541312362, -43.64465469538142], [172.5913541312362, -43.64492418996666], [172.5916236258214, -43.64492418996666], [172.5916236258214, -43.64465469538142], [172.59216261499188, -43.64465469538142], [172.59216261499188, -43.64492418996666], [172.59431857167374, -43.64492418996666], [172.59431857167374, -43.6451936845519]], [[172.59027615289523, -43.643307222455235], [172.59027615289523, -43.64303772787001], [172.59000665830996, -43.64303772787001], [172.59000665830996, -43.643307222455235], [172.59027615289523, -43.643307222455235]]]}, "id": "+1308354+458803", "properties": {"count": 169, "label": 1}}, {"type": "Feature", "geometry": {"geodesic": false, "type": "Polygon", "coordinates": [[[172.59404907708853, -43.639803792847175], [172.59485756084422, -43.639803792847175], [172.59485756084422, -43.639534298261935], [172.594588066259, -43.639534298261935], [172.594588066259, -43.63899530909147], [172.59485756084422, -43.63899530909147], [172.59485756084422, -43.63872581450623], [172.594588066259, -43.63872581450623], [172.594588066259, -43.63845631992099], [172.59404907708853, -43.63845631992099], [172.59404907708853, -43.63872581450623], [172.594588066259, -43.63872581450623], [172.594588066259, -43.63899530909147], [172.59431857167374, -43.63899530909147], [172.59431857167374, -43.63926480367671], [172.59377958250326, -43.63926480367671], [172.59377958250326, -43.639534298261935], [172.59404907708853, -43.639534298261935], [172.59404907708853, -43.639803792847175]]]}, "id": "+1308355+458783", "properties": {"count": 10, "label": 1}}, {"type": "Feature", "geometry": {"geodesic": false, "type": "Polygon", "coordinates": [[[172.5951270554295, -43.63899530909147], [172.59647452835566, -43.63899530909147], [172.59647452835566, -43.637917330750525], [172.5962050337704, -43.637917330750525], [172.5962050337704, -43.638186825335765], [172.59593553918518, -43.638186825335765], [172.59593553918518, -43.637917330750525], [172.59566604459997, -43.637917330750525], [172.59566604459997, -43.638186825335765], [172.5951270554295, -43.638186825335765], [172.5951270554295, -43.63899530909147]]]}, "id": "+1308361+458780", "properties": {"count": 17, "label": 1}}, {"type": "Feature", "geometry": {"geodesic": false, "type": "Polygon", "coordinates": [[[172.59593553918518, -43.641420760358585], [172.59701351752614, -43.641420760358585], [172.59701351752614, -43.64088177118812], [172.59674402294087, -43.64088177118812], [172.59674402294087, -43.64034278201764], [172.5962050337704, -43.64034278201764], [172.5962050337704, -43.639803792847175], [172.59593553918518, -43.639803792847175], [172.59593553918518, -43.640073287432415], [172.5953965500147, -43.640073287432415], [172.5953965500147, -43.64034278201764], [172.5951270554295, -43.64034278201764], [172.5951270554295, -43.64061227660288], [172.594588066259, -43.64061227660288], [172.594588066259, -43.64088177118812], [172.59566604459997, -43.64088177118812], [172.59566604459997, -43.64115126577336], [172.59593553918518, -43.64115126577336], [172.59593553918518, -43.641420760358585]]]}, "id": "+1308363+458789", "properties": {"count": 27, "label": 1}}, {"type": "Feature", "geometry": {"geodesic": false, "type": "Polygon", "coordinates": [[[172.59782200128183, -43.64061227660288], [172.5983609904523, -43.64061227660288], [172.5983609904523, -43.64034278201764], [172.59863048503752, -43.64034278201764], [172.59863048503752, -43.640073287432415], [172.5983609904523, -43.640073287432415], [172.5983609904523, -43.639803792847175], [172.59782200128183, -43.639803792847175], [172.59782200128183, -43.63926480367671], [172.5983609904523, -43.63926480367671], [172.5983609904523, -43.63872581450623], [172.59755250669662, -43.63872581450623], [172.59755250669662, -43.63845631992099], [172.59701351752614, -43.63845631992099], [172.59701351752614, -43.63872581450623], [172.59674402294087, -43.63872581450623], [172.59674402294087, -43.639803792847175], [172.59701351752614, -43.639803792847175], [172.59701351752614, -43.640073287432415], [172.59755250669662, -43.640073287432415], [172.59755250669662, -43.639803792847175], [172.59782200128183, -43.639803792847175], [172.59782200128183, -43.64061227660288]]]}, "id": "+1308368+458786", "properties": {"count": 31, "label": 1}}, {"type": "Feature", "geometry": {"geodesic": false, "type": "Polygon", "coordinates": [[[172.60482886049795, -43.62228664480685], [172.60617633342412, -43.62228664480685], [172.60617633342412, -43.62201715022161], [172.60644582800938, -43.62201715022161], [172.60644582800938, -43.62174765563637], [172.60698481717986, -43.62174765563637], [172.60698481717986, -43.621208666465904], [172.60617633342412, -43.621208666465904], [172.60617633342412, -43.620939171880664], [172.60482886049795, -43.620939171880664], [172.60482886049795, -43.62013068812496], [172.60240340923082, -43.62013068812496], [172.60240340923082, -43.6204001827102], [172.60267290381609, -43.6204001827102], [172.60267290381609, -43.620939171880664], [172.6029423984013, -43.620939171880664], [172.6029423984013, -43.621478161051144], [172.603750882157, -43.621478161051144], [172.603750882157, -43.621208666465904], [172.60428987132747, -43.621208666465904], [172.60428987132747, -43.621478161051144], [172.60455936591273, -43.621478161051144], [172.60455936591273, -43.62201715022161], [172.60482886049795, -43.62201715022161], [172.60482886049795, -43.62228664480685]]]}, "id": "+1308397+458718", "properties": {"count": 71, "label": 1}}, {"type": "Feature", "geometry": {"geodesic": false, "type": "Polygon", "coordinates": [[[172.60779330093555, -43.638186825335765], [172.60833229010603, -43.638186825335765], [172.60833229010603, -43.637647836165286], [172.60860178469125, -43.637647836165286], [172.60860178469125, -43.637378341580046], [172.60806279552077, -43.637378341580046], [172.60806279552077, -43.637647836165286], [172.60779330093555, -43.637647836165286], [172.60779330093555, -43.638186825335765]]]}, "id": "+1308405+458777", "properties": {"count": 6, "label": 1}}, {"type": "Feature", "geometry": {"geodesic": false, "type": "Polygon", "coordinates": [[[172.60779330093555, -43.64249873869953], [172.6088712792765, -43.64249873869953], [172.6088712792765, -43.641959749529065], [172.60752380635034, -43.641959749529065], [172.60752380635034, -43.642229244114304], [172.60779330093555, -43.642229244114304], [172.60779330093555, -43.64249873869953]]]}, "id": "+1308407+458793", "properties": {"count": 9, "label": 1}}, {"type": "Feature", "geometry": {"geodesic": false, "type": "Polygon", "coordinates": [[[172.6088712792765, -43.638186825335765], [172.61021875220268, -43.638186825335765], [172.61021875220268, -43.637917330750525], [172.6104882467879, -43.637917330750525], [172.6104882467879, -43.637378341580046], [172.609410268447, -43.637378341580046], [172.609410268447, -43.637647836165286], [172.6088712792765, -43.637647836165286], [172.6088712792765, -43.638186825335765]]]}, "id": "+1308412+458777", "properties": {"count": 15, "label": 1}}, {"type": "Feature", "geometry": {"geodesic": false, "type": "Polygon", "coordinates": [[[172.6096797630322, -43.639803792847175], [172.6104882467879, -43.639803792847175], [172.6104882467879, -43.639534298261935], [172.61156622512885, -43.639534298261935], [172.61156622512885, -43.63926480367671], [172.61237470888454, -43.63926480367671], [172.61237470888454, -43.63899530909147], [172.61210521429933, -43.63899530909147], [172.61210521429933, -43.63872581450623], [172.61156622512885, -43.63872581450623], [172.61156622512885, -43.63899530909147], [172.61075774137316, -43.63899530909147], [172.61075774137316, -43.63926480367671], [172.6104882467879, -43.63926480367671], [172.6104882467879, -43.639534298261935], [172.6096797630322, -43.639534298261935], [172.6096797630322, -43.639803792847175]]]}, "id": "+1308413+458783", "properties": {"count": 15, "label": 1}}, {"type": "Feature", "geometry": {"geodesic": false, "type": "Polygon", "coordinates": [[[172.61129673054364, -43.58536588662953], [172.61156622512885, -43.58536588662953], [172.61156622512885, -43.58509639204429], [172.61129673054364, -43.58509639204429], [172.61129673054364, -43.58428790828859], [172.61102723595837, -43.58428790828859], [172.61102723595837, -43.58455740287383], [172.61075774137316, -43.58455740287383], [172.61075774137316, -43.58509639204429], [172.61129673054364, -43.58509639204429], [172.61129673054364, -43.58536588662953]]]}, "id": "+1308417+458581", "properties": {"count": 6, "label": 1}}, {"type": "Feature", "geometry": {"geodesic": false, "type": "Polygon", "coordinates": [[[172.61210521429933, -43.64761913581901], [172.6126442034698, -43.64761913581901], [172.6126442034698, -43.647349641233774], [172.61291369805502, -43.647349641233774], [172.61291369805502, -43.64708014664855], [172.6131831926403, -43.64708014664855], [172.6131831926403, -43.64681065206331], [172.6134526872255, -43.64681065206331], [172.6134526872255, -43.646002168307604], [172.61399167639598, -43.646002168307604], [172.61399167639598, -43.645732673722364], [172.61453066556646, -43.645732673722364], [172.61453066556646, -43.645463179137124], [172.61480016015167, -43.645463179137124], [172.61480016015167, -43.6451936845519], [172.61587813849263, -43.6451936845519], [172.61587813849263, -43.64492418996666], [172.6172256114188, -43.64492418996666], [172.6172256114188, -43.6451936845519], [172.61830358975976, -43.6451936845519], [172.61830358975976, -43.645463179137124], [172.61911207351545, -43.645463179137124], [172.61911207351545, -43.645732673722364], [172.61938156810072, -43.645732673722364], [172.61938156810072, -43.64465469538142], [172.61965106268593, -43.64465469538142], [172.61965106268593, -43.644115706210954], [172.6180340951745, -43.644115706210954], [172.6180340951745, -43.643846211625714], [172.61506965473694, -43.643846211625714], [172.61506965473694, -43.644115706210954], [172.61480016015167, -43.644115706210954], [172.61480016015167, -43.64438520079618], [172.61399167639598, -43.64438520079618], [172.61399167639598, -43.64465469538142], [172.61129673054364, -43.64465469538142], [172.61129673054364, -43.64438520079618], [172.61021875220268, -43.64438520079618], [172.61021875220268, -43.64465469538142], [172.60806279552077, -43.64465469538142], [172.60806279552077, -43.64492418996666], [172.60752380635034, -43.64492418996666], [172.60752380635034, -43.64465469538142], [172.60725431176508, -43.64465469538142], [172.60725431176508, -43.64492418996666], [172.6067153225946, -43.64492418996666], [172.6067153225946, -43.6451936845519], [172.60644582800938, -43.6451936845519], [172.60644582800938, -43.645463179137124], [172.60725431176508, -43.645463179137124], [172.60725431176508, -43.645732673722364], [172.60806279552077, -43.645732673722364], [172.60806279552077, -43.646002168307604], [172.60860178469125, -43.646002168307604], [172.60860178469125, -43.64627166289283], [172.6088712792765, -43.64627166289283], [172.6088712792765, -43.64708014664855], [172.609410268447, -43.64708014664855], [172.609410268447, -43.647349641233774], [172.60994925761742, -43.647349641233774], [172.60994925761742, -43.64708014664855], [172.6104882467879, -43.64708014664855], [172.6104882467879, -43.64654115747807], [172.61075774137316, -43.64654115747807], [172.61075774137316, -43.64627166289283], [172.61129673054364, -43.64627166289283], [172.61129673054364, -43.64654115747807], [172.61156622512885, -43.64654115747807], [172.61156622512885, -43.647349641233774], [172.61210521429933, -43.647349641233774], [172.61210521429933, -43.64761913581901]]]}, "id": "+1308421+458812", "properties": {"count": 291, "label": 1}}, {"type": "Feature", "geometry": {"geodesic": false, "type": "Polygon", "coordinates": [[[172.6209985356121, -43.646002168307604], [172.62261550312354, -43.646002168307604], [172.62261550312354, -43.64465469538142], [172.6218070193678, -43.64465469538142], [172.6218070193678, -43.64438520079618], [172.62126803019737, -43.64438520079618], [172.62126803019737, -43.644115706210954], [172.61992055727114, -43.644115706210954], [172.61992055727114, -43.64438520079618], [172.6201900518564, -43.64438520079618], [172.6201900518564, -43.64465469538142], [172.62045954644162, -43.64465469538142], [172.62045954644162, -43.64492418996666], [172.6209985356121, -43.64492418996666], [172.6209985356121, -43.646002168307604]]]}, "id": "+1308458+458806", "properties": {"count": 43, "label": 1}}, {"type": "Feature", "geometry": {"geodesic": false, "type": "Polygon", "coordinates": [[[172.62692741648732, -43.60234404549939], [172.62746640565774, -43.60234404549939], [172.62746640565774, -43.60207455091415], [172.627735900243, -43.60207455091415], [172.627735900243, -43.601805056328914], [172.62800539482822, -43.601805056328914], [172.62800539482822, -43.60126606715845], [172.62719691107253, -43.60126606715845], [172.62719691107253, -43.60153556174369], [172.62692741648732, -43.60153556174369], [172.62692741648732, -43.601805056328914], [172.62665792190205, -43.601805056328914], [172.62665792190205, -43.60207455091415], [172.62692741648732, -43.60207455091415], [172.62692741648732, -43.60234404549939]]]}, "id": "+1308476+458644", "properties": {"count": 13, "label": 1}}, {"type": "Feature", "geometry": {"geodesic": false, "type": "Polygon", "coordinates": [[[172.62962236233966, -43.60153556174369], [172.63016135151014, -43.60153556174369], [172.63016135151014, -43.60126606715845], [172.63043084609535, -43.60126606715845], [172.63043084609535, -43.60072707798798], [172.62962236233966, -43.60072707798798], [172.62962236233966, -43.60153556174369]]]}, "id": "+1308486+458641", "properties": {"count": 8, "label": 1}}, {"type": "Feature", "geometry": {"geodesic": false, "type": "Polygon", "coordinates": [[[172.63070034068062, -43.5918337566752], [172.63177831902152, -43.5918337566752], [172.63177831902152, -43.59129476750472], [172.6315088244363, -43.59129476750472], [172.6315088244363, -43.59102527291948], [172.63096983526583, -43.59102527291948], [172.63096983526583, -43.59156426208996], [172.63070034068062, -43.59156426208996], [172.63070034068062, -43.5918337566752]]]}, "id": "+1308492+458605", "properties": {"count": 9, "label": 1}}, {"type": "Feature", "geometry": {"geodesic": false, "type": "Polygon", "coordinates": [[[172.6315088244363, -43.59372021877185], [172.6320478136068, -43.59372021877185], [172.6320478136068, -43.59345072418661], [172.63177831902152, -43.59345072418661], [172.63177831902152, -43.59291173501613], [172.6315088244363, -43.59291173501613], [172.6315088244363, -43.592642240430905], [172.6312393298511, -43.592642240430905], [172.6312393298511, -43.59291173501613], [172.63096983526583, -43.59291173501613], [172.63096983526583, -43.59372021877185], [172.6312393298511, -43.59372021877185], [172.6312393298511, -43.59345072418661], [172.6315088244363, -43.59345072418661], [172.6315088244363, -43.59372021877185]]]}, "id": "+1308493+458612", "properties": {"count": 10, "label": 1}}, {"type": "Feature", "geometry": {"geodesic": false, "type": "Polygon", "coordinates": [[[172.6315088244363, -43.596415164624204], [172.6320478136068, -43.596415164624204], [172.6320478136068, -43.595876175453725], [172.632317308192, -43.595876175453725], [172.632317308192, -43.5956066808685], [172.6320478136068, -43.5956066808685], [172.6320478136068, -43.594259207942315], [172.6312393298511, -43.594259207942315], [172.6312393298511, -43.594528702527555], [172.63096983526583, -43.594528702527555], [172.63096983526583, -43.594259207942315], [172.62989185692487, -43.594259207942315], [172.62989185692487, -43.59533718628326], [172.63070034068062, -43.59533718628326], [172.63070034068062, -43.5956066808685], [172.6312393298511, -43.5956066808685], [172.6312393298511, -43.595876175453725], [172.6315088244363, -43.595876175453725], [172.6315088244363, -43.596415164624204]]]}, "id": "+1308493+458622", "properties": {"count": 44, "label": 1}}, {"type": "Feature", "geometry": {"geodesic": false, "type": "Polygon", "coordinates": [[[172.632317308192, -43.60261354008463], [172.63339528653296, -43.60261354008463], [172.63339528653296, -43.60234404549939], [172.63312579194775, -43.60234404549939], [172.63312579194775, -43.60207455091415], [172.63285629736248, -43.60207455091415], [172.63285629736248, -43.60045758340274], [172.63258680277727, -43.60045758340274], [172.63258680277727, -43.599918594232264], [172.6320478136068, -43.599918594232264], [172.6320478136068, -43.60099657257321], [172.63177831902152, -43.60099657257321], [172.63177831902152, -43.60072707798798], [172.6312393298511, -43.60072707798798], [172.6312393298511, -43.59911011047656], [172.63096983526583, -43.59911011047656], [172.63096983526583, -43.59884061589132], [172.6312393298511, -43.59884061589132], [172.6312393298511, -43.598571121306094], [172.63177831902152, -43.598571121306094], [172.63177831902152, -43.598301626720854], [172.6320478136068, -43.598301626720854], [172.6320478136068, -43.5993796050618], [172.63285629736248, -43.5993796050618], [172.63285629736248, -43.59911011047656], [172.63258680277727, -43.59911011047656], [172.63258680277727, -43.598571121306094], [172.632317308192, -43.598571121306094], [172.632317308192, -43.59695415379467], [172.6320478136068, -43.59695415379467], [172.6320478136068, -43.59776263755039], [172.63177831902152, -43.59776263755039], [172.63177831902152, -43.598032132135614], [172.6312393298511, -43.598032132135614], [172.6312393298511, -43.59749314296515], [172.63096983526583, -43.59749314296515], [172.63096983526583, -43.598032132135614], [172.63016135151014, -43.598032132135614], [172.63016135151014, -43.59776263755039], [172.62962236233966, -43.59776263755039], [172.62962236233966, -43.598301626720854], [172.63016135151014, -43.598301626720854], [172.63016135151014, -43.59884061589132], [172.63043084609535, -43.59884061589132], [172.63043084609535, -43.5993796050618], [172.63096983526583, -43.5993796050618], [172.63096983526583, -43.60099657257321], [172.63177831902152, -43.60099657257321], [172.63177831902152, -43.60126606715845], [172.6320478136068, -43.60126606715845], [172.6320478136068, -43.60153556174369], [172.63258680277727, -43.60153556174369], [172.63258680277727, -43.601805056328914], [172.63177831902152, -43.601805056328914], [172.63177831902152, -43.60261354008463], [172.6320478136068, -43.60261354008463], [172.6320478136068, -43.60207455091415], [172.63258680277727, -43.60207455091415], [172.63258680277727, -43.60234404549939], [172.632317308192, -43.60234404549939], [172.632317308192, -43.60261354008463]], [[172.63258680277727, -43.60126606715845], [172.63258680277727, -43.60099657257321], [172.6320478136068, -43.60099657257321], [172.6320478136068, -43.60126606715845], [172.63258680277727, -43.60126606715845]]]}, "id": "+1308498+458645", "properties": {"count": 78, "label": 1}}, {"type": "Feature", "geometry": {"geodesic": false, "type": "Polygon", "coordinates": [[[172.66357868007935, -43.6106983776417], [172.6646566584203, -43.6106983776417], [172.6646566584203, -43.61015938847123], [172.66411766924983, -43.61015938847123], [172.66411766924983, -43.60908141013029], [172.66384817466462, -43.60908141013029], [172.66384817466462, -43.60881191554505], [172.66357868007935, -43.60881191554505], [172.66357868007935, -43.60827292637458], [172.66330918549414, -43.60827292637458], [172.66330918549414, -43.60800343178934], [172.66277019632366, -43.60800343178934], [172.66277019632366, -43.60746444261888], [172.66223120715318, -43.60746444261888], [172.66223120715318, -43.6069254534484], [172.66196171256797, -43.6069254534484], [172.66196171256797, -43.60665595886317], [172.6614227233975, -43.60665595886317], [172.6614227233975, -43.6069254534484], [172.66115322881222, -43.6069254534484], [172.66115322881222, -43.60746444261888], [172.660883734227, -43.60746444261888], [172.660883734227, -43.6077339372041], [172.6606142396418, -43.6077339372041], [172.6606142396418, -43.60935090471553], [172.66115322881222, -43.60935090471553], [172.66115322881222, -43.609620399300766], [172.66250070173845, -43.609620399300766], [172.66250070173845, -43.60988989388599], [172.66277019632366, -43.60988989388599], [172.66277019632366, -43.61015938847123], [172.66357868007935, -43.61015938847123], [172.66357868007935, -43.6106983776417]]]}, "id": "+1308614+458675", "properties": {"count": 112, "label": 1}}]}